QIANFAN-33              
1 61566U 24185Q   26197.26866687  .00000162  00000+0  10713-3 0  9991
2 61566  88.9793  54.7807 0008558  28.2502 331.9137 13.96719992 99243
QIANFAN-34              
1 61567U 24185R   26197.27697398  .00000090  00000+0  49813-4 0  9998
2 61567  88.9770  54.0582 0006657  27.8562 332.2974 14.02484005 99561
QIANFAN-35              
1 61568U 24185S   26197.21848205  .00000319  00000+0  12220-3 0  9993
2 61568  88.9797  51.5893 0004459 314.0364  46.0463 14.28298504100939
QIANFAN-36              
1 61569U 24185T   26197.27033223  .00000122  00000+0  15788-3 0  9990
2 61569  88.9771  58.5866 0007691 124.7397 235.4483 13.55640467 97122
QIANFAN-37              
1 62238U 24232B   26197.22025482  .00000023  00000+0  17636-4 0  9995
2 62238  89.0067  19.6676 0002028 107.9698 252.1675 13.51011277128265
QIANFAN-38              
1 62239U 24232C   26197.02276458  .00000033  00000+0  32046-4 0  9998
2 62239  89.0074  19.6178 0012651 297.0006  62.9853 13.51007977128298
QIANFAN-39              
1 62240U 24232D   26197.21035974  .00000067  00000+0  22185-4 0  9997
2 62240  89.0062  12.7598 0018538  92.8161 267.5154 14.25532455132085
QIANFAN-40              
1 62241U 24232E   26197.27782442  .00000020  00000+0  12132-4 0  9993
2 62241  89.0101  19.2368 0011831 305.7793  54.2258 13.51009418128697
QIANFAN-41              
1 62242U 24232F   26197.21197769  .00000031  00000+0  30190-4 0  9996
2 62242  89.0072  19.5463 0011989 292.0245  67.9632 13.51012359128345
QIANFAN-42              
1 62243U 24232G   26197.27543448  .00000072  00000+0  24543-4 0  9992
2 62243  89.0060  12.8314 0017353  98.5418 261.7742 14.24621010132056
QIANFAN-43              
1 62244U 24232H   26197.20785829  .00000024  00000+0  18375-4 0  9990
2 62244  89.0076  19.6216 0013610 297.6744  62.3025 13.51011728 96951
QIANFAN-44              
1 62245U 24232J   26197.26952212  .00000024  00000+0  18768-4 0  9995
2 62245  89.0075  19.4226 0011771 294.5047  65.4876 13.51013644128434
QIANFAN-45              
1 62246U 24232K   26197.23670102  .00000021  00000+0  14336-4 0  9992
2 62246  89.0078  19.5801 0012435 294.0756  65.9094 13.51011015128356
QIANFAN-46              
1 62247U 24232L   26197.26135455  .00000008  00000+0 -52512-5 0  9998
2 62247  89.0074  19.6378 0012580 300.3407  59.6499 13.51011677128317
QIANFAN-47              
1 62248U 24232M   26197.26548491  .00000025  00000+0  20745-4 0  9997
2 62248  89.0070  19.5617 0012975 299.1280  60.8571 13.51011204128345
QIANFAN-48              
1 62249U 24232N   26197.22830219  .00000025  00000+0  19807-4 0  9993
2 62249  89.0074  19.5757 0015288 301.6312  58.3347 13.51015807128346
