{"fetched_at":"2026-07-16T17:46:08.983Z","source":"https://celestrak.org/NORAD/elements/gp.php?GROUP=qianfan&FORMAT=JSON","constellation":"qianfan","records":[{"OBJECT_NAME":"QIANFAN-33","OBJECT_ID":"2024-185Q","EPOCH":"2026-07-16T06:26:52.817568","CLASSIFICATION_TYPE":"U","MEAN_MOTION":13.96719992,"ECCENTRICITY":0.0008558,"INCLINATION":88.9793,"RA_OF_ASC_NODE":54.7807,"ARG_OF_PERICENTER":28.2502,"MEAN_ANOMALY":331.9137,"EPHEMERIS_TYPE":0,"NORAD_CAT_ID":61566,"ELEMENT_SET_NO":999,"REV_AT_EPOCH":9924,"BSTAR":0.00010713195,"MEAN_MOTION_DOT":0.00000162,"MEAN_MOTION_DDOT":0},{"OBJECT_NAME":"QIANFAN-34","OBJECT_ID":"2024-185R","EPOCH":"2026-07-16T06:38:50.551872","CLASSIFICATION_TYPE":"U","MEAN_MOTION":14.02484005,"ECCENTRICITY":0.00066574,"INCLINATION":88.977,"RA_OF_ASC_NODE":54.0582,"ARG_OF_PERICENTER":27.8562,"MEAN_ANOMALY":332.2974,"EPHEMERIS_TYPE":0,"NORAD_CAT_ID":61567,"ELEMENT_SET_NO":999,"REV_AT_EPOCH":9956,"BSTAR":0.000049813494,"MEAN_MOTION_DOT":9e-7,"MEAN_MOTION_DDOT":0},{"OBJECT_NAME":"QIANFAN-35","OBJECT_ID":"2024-185S","EPOCH":"2026-07-16T05:14:36.849120","CLASSIFICATION_TYPE":"U","MEAN_MOTION":14.28298504,"ECCENTRICITY":0.00044594,"INCLINATION":88.9797,"RA_OF_ASC_NODE":51.5893,"ARG_OF_PERICENTER":314.0364,"MEAN_ANOMALY":46.0463,"EPHEMERIS_TYPE":0,"NORAD_CAT_ID":61568,"ELEMENT_SET_NO":999,"REV_AT_EPOCH":10093,"BSTAR":0.00012220102,"MEAN_MOTION_DOT":0.00000319,"MEAN_MOTION_DDOT":0},{"OBJECT_NAME":"QIANFAN-36","OBJECT_ID":"2024-185T","EPOCH":"2026-07-16T06:29:16.704672","CLASSIFICATION_TYPE":"U","MEAN_MOTION":13.55640467,"ECCENTRICITY":0.00076914,"INCLINATION":88.9771,"RA_OF_ASC_NODE":58.5866,"ARG_OF_PERICENTER":124.7397,"MEAN_ANOMALY":235.4483,"EPHEMERIS_TYPE":0,"NORAD_CAT_ID":61569,"ELEMENT_SET_NO":999,"REV_AT_EPOCH":9712,"BSTAR":0.00015787878,"MEAN_MOTION_DOT":0.00000122,"MEAN_MOTION_DDOT":0},{"OBJECT_NAME":"QIANFAN-37","OBJECT_ID":"2024-232B","EPOCH":"2026-07-16T05:17:10.016448","CLASSIFICATION_TYPE":"U","MEAN_MOTION":13.51011277,"ECCENTRICITY":0.00020282,"INCLINATION":89.0067,"RA_OF_ASC_NODE":19.6676,"ARG_OF_PERICENTER":107.9698,"MEAN_ANOMALY":252.1675,"EPHEMERIS_TYPE":0,"NORAD_CAT_ID":62238,"ELEMENT_SET_NO":999,"REV_AT_EPOCH":12826,"BSTAR":0.000017636433,"MEAN_MOTION_DOT":2.3e-7,"MEAN_MOTION_DDOT":0},{"OBJECT_NAME":"QIANFAN-38","OBJECT_ID":"2024-232C","EPOCH":"2026-07-16T00:32:46.859712","CLASSIFICATION_TYPE":"U","MEAN_MOTION":13.51007977,"ECCENTRICITY":0.0012651,"INCLINATION":89.0074,"RA_OF_ASC_NODE":19.6178,"ARG_OF_PERICENTER":297.0006,"MEAN_ANOMALY":62.9853,"EPHEMERIS_TYPE":0,"NORAD_CAT_ID":62239,"ELEMENT_SET_NO":999,"REV_AT_EPOCH":12829,"BSTAR":0.00003204625,"MEAN_MOTION_DOT":3.3e-7,"MEAN_MOTION_DDOT":0},{"OBJECT_NAME":"QIANFAN-39","OBJECT_ID":"2024-232D","EPOCH":"2026-07-16T05:02:55.081536","CLASSIFICATION_TYPE":"U","MEAN_MOTION":14.25532455,"ECCENTRICITY":0.00185388,"INCLINATION":89.0062,"RA_OF_ASC_NODE":12.7598,"ARG_OF_PERICENTER":92.8161,"MEAN_ANOMALY":267.5154,"EPHEMERIS_TYPE":0,"NORAD_CAT_ID":62240,"ELEMENT_SET_NO":999,"REV_AT_EPOCH":13208,"BSTAR":0.000022184801,"MEAN_MOTION_DOT":6.7e-7,"MEAN_MOTION_DDOT":0},{"OBJECT_NAME":"QIANFAN-40","OBJECT_ID":"2024-232E","EPOCH":"2026-07-16T06:40:04.029888","CLASSIFICATION_TYPE":"U","MEAN_MOTION":13.51009418,"ECCENTRICITY":0.00118317,"INCLINATION":89.0101,"RA_OF_ASC_NODE":19.2368,"ARG_OF_PERICENTER":305.7793,"MEAN_ANOMALY":54.2258,"EPHEMERIS_TYPE":0,"NORAD_CAT_ID":62241,"ELEMENT_SET_NO":999,"REV_AT_EPOCH":12869,"BSTAR":0.000012132391,"MEAN_MOTION_DOT":2e-7,"MEAN_MOTION_DDOT":0},{"OBJECT_NAME":"QIANFAN-41","OBJECT_ID":"2024-232F","EPOCH":"2026-07-16T05:05:14.872416","CLASSIFICATION_TYPE":"U","MEAN_MOTION":13.51012359,"ECCENTRICITY":0.00119895,"INCLINATION":89.0072,"RA_OF_ASC_NODE":19.5463,"ARG_OF_PERICENTER":292.0245,"MEAN_ANOMALY":67.9632,"EPHEMERIS_TYPE":0,"NORAD_CAT_ID":62242,"ELEMENT_SET_NO":999,"REV_AT_EPOCH":12834,"BSTAR":0.000030190432,"MEAN_MOTION_DOT":3.1e-7,"MEAN_MOTION_DDOT":0},{"OBJECT_NAME":"QIANFAN-42","OBJECT_ID":"2024-232G","EPOCH":"2026-07-16T06:36:37.539072","CLASSIFICATION_TYPE":"U","MEAN_MOTION":14.2462101,"ECCENTRICITY":0.00173538,"INCLINATION":89.006,"RA_OF_ASC_NODE":12.8314,"ARG_OF_PERICENTER":98.5418,"MEAN_ANOMALY":261.7742,"EPHEMERIS_TYPE":0,"NORAD_CAT_ID":62243,"ELEMENT_SET_NO":999,"REV_AT_EPOCH":13205,"BSTAR":0.000024542642,"MEAN_MOTION_DOT":7.2e-7,"MEAN_MOTION_DDOT":0},{"OBJECT_NAME":"QIANFAN-43","OBJECT_ID":"2024-232H","EPOCH":"2026-07-16T04:59:18.956256","CLASSIFICATION_TYPE":"U","MEAN_MOTION":13.51011728,"ECCENTRICITY":0.00136108,"INCLINATION":89.0076,"RA_OF_ASC_NODE":19.6216,"ARG_OF_PERICENTER":297.6744,"MEAN_ANOMALY":62.3025,"EPHEMERIS_TYPE":0,"NORAD_CAT_ID":62244,"ELEMENT_SET_NO":999,"REV_AT_EPOCH":9695,"BSTAR":0.000018374523,"MEAN_MOTION_DOT":2.4e-7,"MEAN_MOTION_DDOT":0},{"OBJECT_NAME":"QIANFAN-44","OBJECT_ID":"2024-232J","EPOCH":"2026-07-16T06:28:06.711168","CLASSIFICATION_TYPE":"U","MEAN_MOTION":13.51013644,"ECCENTRICITY":0.00117715,"INCLINATION":89.0075,"RA_OF_ASC_NODE":19.4226,"ARG_OF_PERICENTER":294.5047,"MEAN_ANOMALY":65.4876,"EPHEMERIS_TYPE":0,"NORAD_CAT_ID":62245,"ELEMENT_SET_NO":999,"REV_AT_EPOCH":12843,"BSTAR":0.000018768005,"MEAN_MOTION_DOT":2.4e-7,"MEAN_MOTION_DDOT":0},{"OBJECT_NAME":"QIANFAN-45","OBJECT_ID":"2024-232K","EPOCH":"2026-07-16T05:40:50.968128","CLASSIFICATION_TYPE":"U","MEAN_MOTION":13.51011015,"ECCENTRICITY":0.00124358,"INCLINATION":89.0078,"RA_OF_ASC_NODE":19.5801,"ARG_OF_PERICENTER":294.0756,"MEAN_ANOMALY":65.9094,"EPHEMERIS_TYPE":0,"NORAD_CAT_ID":62246,"ELEMENT_SET_NO":999,"REV_AT_EPOCH":12835,"BSTAR":0.000014336206,"MEAN_MOTION_DOT":2.1e-7,"MEAN_MOTION_DDOT":0},{"OBJECT_NAME":"QIANFAN-46","OBJECT_ID":"2024-232L","EPOCH":"2026-07-16T06:16:21.033120","CLASSIFICATION_TYPE":"U","MEAN_MOTION":13.51011677,"ECCENTRICITY":0.00125806,"INCLINATION":89.0074,"RA_OF_ASC_NODE":19.6378,"ARG_OF_PERICENTER":300.3407,"MEAN_ANOMALY":59.6499,"EPHEMERIS_TYPE":0,"NORAD_CAT_ID":62247,"ELEMENT_SET_NO":999,"REV_AT_EPOCH":12831,"BSTAR":-0.000005251151,"MEAN_MOTION_DOT":8e-8,"MEAN_MOTION_DDOT":0},{"OBJECT_NAME":"QIANFAN-47","OBJECT_ID":"2024-232M","EPOCH":"2026-07-16T06:22:17.896224","CLASSIFICATION_TYPE":"U","MEAN_MOTION":13.51011204,"ECCENTRICITY":0.00129756,"INCLINATION":89.007,"RA_OF_ASC_NODE":19.5617,"ARG_OF_PERICENTER":299.128,"MEAN_ANOMALY":60.8571,"EPHEMERIS_TYPE":0,"NORAD_CAT_ID":62248,"ELEMENT_SET_NO":999,"REV_AT_EPOCH":12834,"BSTAR":0.000020744871,"MEAN_MOTION_DOT":2.5e-7,"MEAN_MOTION_DDOT":0},{"OBJECT_NAME":"QIANFAN-48","OBJECT_ID":"2024-232N","EPOCH":"2026-07-16T05:28:45.309216","CLASSIFICATION_TYPE":"U","MEAN_MOTION":13.51015807,"ECCENTRICITY":0.00152889,"INCLINATION":89.0074,"RA_OF_ASC_NODE":19.5757,"ARG_OF_PERICENTER":301.6312,"MEAN_ANOMALY":58.3347,"EPHEMERIS_TYPE":0,"NORAD_CAT_ID":62249,"ELEMENT_SET_NO":999,"REV_AT_EPOCH":12834,"BSTAR":0.000019806788,"MEAN_MOTION_DOT":2.5e-7,"MEAN_MOTION_DDOT":0}]}
